{"fetched_at":"2026-07-11T09:23:59.140Z","source":"https://celestrak.org/NORAD/elements/gp.php?GROUP=planet&FORMAT=JSON","constellation":"superdove","records":[{"OBJECT_NAME":"FLOCK 4G-25","OBJECT_ID":"2025-009AP","EPOCH":"2026-07-10T17:45:19.565856","CLASSIFICATION_TYPE":"U","MEAN_MOTION":15.29949588,"ECCENTRICITY":0.0002021,"INCLINATION":97.4015,"RA_OF_ASC_NODE":273.7199,"ARG_OF_PERICENTER":173.3025,"MEAN_ANOMALY":186.8243,"EPHEMERIS_TYPE":0,"NORAD_CAT_ID":62646,"ELEMENT_SET_NO":999,"REV_AT_EPOCH":8252,"BSTAR":0.00025259,"MEAN_MOTION_DOT":0.00007248,"MEAN_MOTION_DDOT":0},{"OBJECT_NAME":"FLOCK 4G-23","OBJECT_ID":"2025-009AQ","EPOCH":"2026-07-10T04:58:38.352576","CLASSIFICATION_TYPE":"U","MEAN_MOTION":15.34498313,"ECCENTRICITY":0.0003303,"INCLINATION":97.3883,"RA_OF_ASC_NODE":272.884,"ARG_OF_PERICENTER":165.8611,"MEAN_ANOMALY":194.2725,"EPHEMERIS_TYPE":0,"NORAD_CAT_ID":62647,"ELEMENT_SET_NO":999,"REV_AT_EPOCH":8245,"BSTAR":0.00094014,"MEAN_MOTION_DOT":0.00031434,"MEAN_MOTION_DDOT":0},{"OBJECT_NAME":"FLOCK 4G-34","OBJECT_ID":"2025-009AT","EPOCH":"2026-07-10T03:42:55.965024","CLASSIFICATION_TYPE":"U","MEAN_MOTION":15.29710337,"ECCENTRICITY":0.00018792,"INCLINATION":97.3961,"RA_OF_ASC_NODE":272.6293,"ARG_OF_PERICENTER":173.3477,"MEAN_ANOMALY":186.7789,"EPHEMERIS_TYPE":0,"NORAD_CAT_ID":62650,"ELEMENT_SET_NO":999,"REV_AT_EPOCH":8242,"BSTAR":0.00025369232,"MEAN_MOTION_DOT":0.00007226,"MEAN_MOTION_DDOT":0},{"OBJECT_NAME":"FLOCK 4G-21","OBJECT_ID":"2025-009AU","EPOCH":"2026-07-10T11:24:47.431008","CLASSIFICATION_TYPE":"U","MEAN_MOTION":15.32651356,"ECCENTRICITY":0.0002658,"INCLINATION":97.3992,"RA_OF_ASC_NODE":273.9279,"ARG_OF_PERICENTER":205.4116,"MEAN_ANOMALY":154.6996,"EPHEMERIS_TYPE":0,"NORAD_CAT_ID":62651,"ELEMENT_SET_NO":999,"REV_AT_EPOCH":8252,"BSTAR":0.0008187,"MEAN_MOTION_DOT":0.00025796,"MEAN_MOTION_DDOT":0},{"OBJECT_NAME":"FLOCK 4G-31","OBJECT_ID":"2025-009AV","EPOCH":"2026-07-09T11:08:46.415904","CLASSIFICATION_TYPE":"U","MEAN_MOTION":15.29505382,"ECCENTRICITY":0.00013747,"INCLINATION":97.3964,"RA_OF_ASC_NODE":271.9155,"ARG_OF_PERICENTER":168.456,"MEAN_ANOMALY":191.6712,"EPHEMERIS_TYPE":0,"NORAD_CAT_ID":62652,"ELEMENT_SET_NO":999,"REV_AT_EPOCH":8231,"BSTAR":0.00025191745,"MEAN_MOTION_DOT":0.0000713,"MEAN_MOTION_DDOT":0},{"OBJECT_NAME":"FLOCK 4G-4","OBJECT_ID":"2025-009BC","EPOCH":"2026-07-10T03:57:07.238304","CLASSIFICATION_TYPE":"U","MEAN_MOTION":15.31919799,"ECCENTRICITY":0.00041987,"INCLINATION":97.3947,"RA_OF_ASC_NODE":272.4068,"ARG_OF_PERICENTER":206.4718,"MEAN_ANOMALY":153.6309,"EPHEMERIS_TYPE":0,"NORAD_CAT_ID":62659,"ELEMENT_SET_NO":999,"REV_AT_EPOCH":14002,"BSTAR":0.00091431961,"MEAN_MOTION_DOT":0.00028179,"MEAN_MOTION_DDOT":0},{"OBJECT_NAME":"FLOCK 4G-6","OBJECT_ID":"2025-009BD","EPOCH":"2026-07-10T04:11:21.310944","CLASSIFICATION_TYPE":"U","MEAN_MOTION":15.29918305,"ECCENTRICITY":0.00024416,"INCLINATION":97.3942,"RA_OF_ASC_NODE":272.4727,"ARG_OF_PERICENTER":223.1827,"MEAN_ANOMALY":136.9222,"EPHEMERIS_TYPE":0,"NORAD_CAT_ID":62660,"ELEMENT_SET_NO":999,"REV_AT_EPOCH":14001,"BSTAR":0.00025663863,"MEAN_MOTION_DOT":0.00007359,"MEAN_MOTION_DDOT":0},{"OBJECT_NAME":"FLOCK 4G-2","OBJECT_ID":"2025-009BE","EPOCH":"2026-07-09T04:31:20.369280","CLASSIFICATION_TYPE":"U","MEAN_MOTION":15.30246999,"ECCENTRICITY":0.00031813,"INCLINATION":97.4003,"RA_OF_ASC_NODE":272.1248,"ARG_OF_PERICENTER":225.2752,"MEAN_ANOMALY":134.8231,"EPHEMERIS_TYPE":0,"NORAD_CAT_ID":62661,"ELEMENT_SET_NO":999,"REV_AT_EPOCH":13989,"BSTAR":0.00026152711,"MEAN_MOTION_DOT":0.00007578,"MEAN_MOTION_DDOT":0},{"OBJECT_NAME":"FLOCK 4G-5","OBJECT_ID":"2025-009BG","EPOCH":"2026-07-10T03:59:12.266880","CLASSIFICATION_TYPE":"U","MEAN_MOTION":15.3084973,"ECCENTRICITY":0.00030139,"INCLINATION":97.4024,"RA_OF_ASC_NODE":273.4934,"ARG_OF_PERICENTER":197.5963,"MEAN_ANOMALY":162.5174,"EPHEMERIS_TYPE":0,"NORAD_CAT_ID":62663,"ELEMENT_SET_NO":999,"REV_AT_EPOCH":8245,"BSTAR":0.00024298327,"MEAN_MOTION_DOT":0.00007167,"MEAN_MOTION_DDOT":0},{"OBJECT_NAME":"FLOCK 4G-1","OBJECT_ID":"2025-009BK","EPOCH":"2026-07-10T00:33:01.173600","CLASSIFICATION_TYPE":"U","MEAN_MOTION":15.30122478,"ECCENTRICITY":0.00034748,"INCLINATION":97.4019,"RA_OF_ASC_NODE":272.9356,"ARG_OF_PERICENTER":219.2072,"MEAN_ANOMALY":140.8918,"EPHEMERIS_TYPE":0,"NORAD_CAT_ID":62666,"ELEMENT_SET_NO":999,"REV_AT_EPOCH":8240,"BSTAR":0.00027414697,"MEAN_MOTION_DOT":0.00007917,"MEAN_MOTION_DDOT":0},{"OBJECT_NAME":"FLOCK 4G-14","OBJECT_ID":"2025-009BL","EPOCH":"2026-07-10T04:24:00.243360","CLASSIFICATION_TYPE":"U","MEAN_MOTION":15.29669803,"ECCENTRICITY":0.00036559,"INCLINATION":97.4022,"RA_OF_ASC_NODE":272.895,"ARG_OF_PERICENTER":213.2562,"MEAN_ANOMALY":146.8449,"EPHEMERIS_TYPE":0,"NORAD_CAT_ID":62667,"ELEMENT_SET_NO":999,"REV_AT_EPOCH":8241,"BSTAR":0.00027827315,"MEAN_MOTION_DOT":0.00007925,"MEAN_MOTION_DDOT":0},{"OBJECT_NAME":"FLOCK 4G-18","OBJECT_ID":"2025-009BZ","EPOCH":"2026-07-10T13:16:25.851072","CLASSIFICATION_TYPE":"U","MEAN_MOTION":15.31989171,"ECCENTRICITY":0.0005665,"INCLINATION":97.4012,"RA_OF_ASC_NODE":273.2289,"ARG_OF_PERICENTER":227.2553,"MEAN_ANOMALY":132.8212,"EPHEMERIS_TYPE":0,"NORAD_CAT_ID":62680,"ELEMENT_SET_NO":999,"REV_AT_EPOCH":14011,"BSTAR":0.00082986,"MEAN_MOTION_DOT":0.00025621,"MEAN_MOTION_DDOT":0}]}
