FLOCK 4G-25             
1 62646U 25009AP  26191.73980979  .00007248  00000+0  25259-3 0  9997
2 62646  97.4015 273.7199 0002021 173.3025 186.8243 15.29949588 82525
FLOCK 4G-23             
1 62647U 25009AQ  26191.20738834  .00031434  00000+0  94014-3 0  9990
2 62647  97.3883 272.8840 0003303 165.8611 194.2725 15.34498313 82453
FLOCK 4G-34             
1 62650U 25009AT  26191.15481441  .00007226  00000+0  25369-3 0  9996
2 62650  97.3961 272.6293 0001879 173.3477 186.7789 15.29710337 82424
FLOCK 4G-21             
1 62651U 25009AU  26191.47554897  .00025796  00000+0  81870-3 0  9999
2 62651  97.3992 273.9279 0002658 205.4116 154.6996 15.32651356 82524
FLOCK 4G-31             
1 62652U 25009AV  26190.46442611  .00007130  00000+0  25192-3 0  9995
2 62652  97.3964 271.9155 0001374 168.4560 191.6712 15.29505382 82317
FLOCK 4G-4              
1 62659U 25009BC  26191.16466711  .00028179  00000+0  91432-3 0  9993
2 62659  97.3947 272.4068 0004198 206.4718 153.6309 15.31919799140026
FLOCK 4G-6              
1 62660U 25009BD  26191.17455221  .00007359  00000+0  25664-3 0  9991
2 62660  97.3942 272.4727 0002441 223.1827 136.9222 15.29918305140017
FLOCK 4G-2              
1 62661U 25009BE  26190.18843020  .00007578  00000+0  26153-3 0  9997
2 62661  97.4003 272.1248 0003181 225.2752 134.8231 15.30246999139890
FLOCK 4G-5              
1 62663U 25009BG  26191.16611420  .00007167  00000+0  24298-3 0  9997
2 62663  97.4024 273.4934 0003013 197.5963 162.5174 15.30849730 82455
FLOCK 4G-1              
1 62666U 25009BK  26191.02293025  .00007917  00000+0  27415-3 0  9999
2 62666  97.4019 272.9356 0003474 219.2072 140.8918 15.30122478 82401
FLOCK 4G-14             
1 62667U 25009BL  26191.18333615  .00007925  00000+0  27827-3 0  9993
2 62667  97.4022 272.8950 0003655 213.2562 146.8449 15.29669803 82416
FLOCK 4G-18             
1 62680U 25009BZ  26191.55307698  .00025621  00000+0  82986-3 0  9991
2 62680  97.4012 273.2289 0005665 227.2553 132.8212 15.31989171140119
